{"type": "FeatureCollection", "features": [ {"type": "Feature", "properties": {"norad_id": 38953, "name": "BEIDOU-2 G6 (C02)", "group": "beidou", "lat": 1.1084687089119203, "lon": 91.55315680343107, "alt_km": 35784.31524542575, "timestamp": "2025-12-05T19:30:25.830578+00:00", "meta": {"OBJECT_NAME": "BEIDOU-2 G6 (C02)", "OBJECT_ID": "2012-059A", "EPOCH": "2025-12-05T00:23:51.463104", "MEAN_MOTION": 1.00270434, "ECCENTRICITY": 0.00074327, "INCLINATION": 3.9283, "RA_OF_ASC_NODE": 75.5783, "ARG_OF_PERICENTER": 289.5044, "MEAN_ANOMALY": 159.0083, "EPHEMERIS_TYPE": 0, "CLASSIFICATION_TYPE": "U", "NORAD_CAT_ID": 38953, "ELEMENT_SET_NO": 999, "REV_AT_EPOCH": 4796, "BSTAR": 0, "MEAN_MOTION_DOT": -1.65e-06, "MEAN_MOTION_DDOT": 0}, "tle": {"line1": "1 38953U 12059A   25339.01656786 -.00000165  00000+0  00000+0 0  9997", "line2": "2 38953   3.9283  75.5783 0007432 289.5044 159.0083  1.00270434 47961"}}, "geometry": {"type": "Point", "coordinates": [91.55315680343107, 1.1084687089119203]}}, {"type": "Feature", "properties": {"norad_id": 40748, "name": "BEIDOU-3S M2S (C58)", "group": "beidou", "lat": -32.034122969213506, "lon": 154.61931513212224, "alt_km": 21508.808419655146, "timestamp": "2025-12-05T19:30:25.830589+00:00", "meta": {"OBJECT_NAME": "BEIDOU-3S M2S (C58)", "OBJECT_ID": "2015-037A", "EPOCH": "2025-12-04T09:50:19.277376", "MEAN_MOTION": 1.86229056, "ECCENTRICITY": 0.00124004, "INCLINATION": 55.0462, "RA_OF_ASC_NODE": 308.7497, "ARG_OF_PERICENTER": 267.6151, "MEAN_ANOMALY": 92.2259, "EPHEMERIS_TYPE": 0, "CLASSIFICATION_TYPE": "U", "NORAD_CAT_ID": 40748, "ELEMENT_SET_NO": 999, "REV_AT_EPOCH": 7049, "BSTAR": 0, "MEAN_MOTION_DOT": -6.8e-07, "MEAN_MOTION_DDOT": 0}, "tle": {"line1": "1 40748U 15037A   25338.40994534 -.00000068  00000+0  00000+0 0  9991", "line2": "2 40748  55.0462 308.7497 0012400 267.6151  92.2259  1.86229056 70498"}}, "geometry": {"type": "Point", "coordinates": [154.61931513212224, -32.034122969213506]}}, {"type": "Feature", "properties": {"norad_id": 40749, "name": "BEIDOU-3S M1S (C57)", "group": "beidou", "lat": 48.29077086508527, "lon": 0.3442909810435266, "alt_km": 21516.818508162312, "timestamp": "2025-12-05T19:30:25.830600+00:00", "meta": {"OBJECT_NAME": "BEIDOU-3S M1S (C57)", "OBJECT_ID": "2015-037B", "EPOCH": "2025-12-01T22:57:46.412352", "MEAN_MOTION": 1.86253762, "ECCENTRICITY": 0.0003321, "INCLINATION": 55.0451, "RA_OF_ASC_NODE": 308.8236, "ARG_OF_PERICENTER": 355.9906, "MEAN_ANOMALY": 3.9975, "EPHEMERIS_TYPE": 0, "CLASSIFICATION_TYPE": "U", "NORAD_CAT_ID": 40749, "ELEMENT_SET_NO": 999, "REV_AT_EPOCH": 7045, "BSTAR": 0, "MEAN_MOTION_DOT": -6e-07, "MEAN_MOTION_DDOT": 0}, "tle": {"line1": "1 40749U 15037B   25335.95678718 -.00000060  00000+0  00000+0 0  9994", "line2": "2 40749  55.0451 308.8236 0003321 355.9906   3.9975  1.86253762 70451"}}, "geometry": {"type": "Point", "coordinates": [0.3442909810435266, 48.29077086508527]}}, {"type": "Feature", "properties": {"norad_id": 40938, "name": "BEIDOU-3S IGSO-2S (C56)", "group": "beidou", "lat": -17.039833896421875, "lon": 96.20187142768003, "alt_km": 35538.43164284352, "timestamp": "2025-12-05T19:30:25.830611+00:00", "meta": {"OBJECT_NAME": "BEIDOU-3S IGSO-2S (C56)", "OBJECT_ID": "2015-053A", "EPOCH": "2025-12-03T17:17:32.013024", "MEAN_MOTION": 1.0027148, "ECCENTRICITY": 0.00611089, "INCLINATION": 49.5266, "RA_OF_ASC_NODE": 261.1136, "ARG_OF_PERICENTER": 188.632, "MEAN_ANOMALY": 338.5579, "EPHEMERIS_TYPE": 0, "CLASSIFICATION_TYPE": "U", "NORAD_CAT_ID": 40938, "ELEMENT_SET_NO": 999, "REV_AT_EPOCH": 3739, "BSTAR": 0, "MEAN_MOTION_DOT": -1.53e-06, "MEAN_MOTION_DDOT": 0}, "tle": {"line1": "1 40938U 15053A   25337.72050941 -.00000153  00000+0  00000+0 0  9994", "line2": "2 40938  49.5266 261.1136 0061108 188.6320 338.5579  1.00271480 37397"}}, "geometry": {"type": "Point", "coordinates": [96.20187142768003, -17.039833896421875]}}, {"type": "Feature", "properties": {"norad_id": 41434, "name": "BEIDOU-2 IGSO-6 (C13)", "group": "beidou", "lat": 47.94315860873375, "lon": 79.83594544982755, "alt_km": 36033.61798629802, "timestamp": "2025-12-05T19:30:25.830624+00:00", "meta": {"OBJECT_NAME": "BEIDOU-2 IGSO-6 (C13)", "OBJECT_ID": "2016-021A", "EPOCH": "2025-12-01T15:57:35.287200", "MEAN_MOTION": 1.00256562, "ECCENTRICITY": 0.00591323, "INCLINATION": 59.9483, "RA_OF_ASC_NODE": 40.0119, "ARG_OF_PERICENTER": 231.2834, "MEAN_ANOMALY": 130.8807, "EPHEMERIS_TYPE": 0, "CLASSIFICATION_TYPE": "U", "NORAD_CAT_ID": 41434, "ELEMENT_SET_NO": 999, "REV_AT_EPOCH": 3550, "BSTAR": 0, "MEAN_MOTION_DOT": -1.55e-06, "MEAN_MOTION_DDOT": 0}, "tle": {"line1": "1 41434U 16021A   25335.66499175 -.00000155  00000+0  00000+0 0  9991", "line2": "2 41434  59.9483  40.0119 0059132 231.2834 130.8807  1.00256562 35501"}}, "geometry": {"type": "Point", "coordinates": [79.83594544982755, 47.94315860873375]}}, {"type": "Feature", "properties": {"norad_id": 41586, "name": "BEIDOU-2 G7 (C03)", "group": "beidou", "lat": 1.3527975375916594, "lon": 117.96801869876089, "alt_km": 35773.89318398212, "timestamp": "2025-12-05T19:30:25.830636+00:00", "meta": {"OBJECT_NAME": "BEIDOU-2 G7 (C03)", "OBJECT_ID": "2016-037A", "EPOCH": "2025-12-05T14:13:25.464576", "MEAN_MOTION": 1.00270507, "ECCENTRICITY": 0.0004355, "INCLINATION": 1.7387, "RA_OF_ASC_NODE": 67.7225, "ARG_OF_PERICENTER": 2.4156, "MEAN_ANOMALY": 328.3509, "EPHEMERIS_TYPE": 0, "CLASSIFICATION_TYPE": "U", "NORAD_CAT_ID": 41586, "ELEMENT_SET_NO": 999, "REV_AT_EPOCH": 494, "BSTAR": 0, "MEAN_MOTION_DOT": -3.44e-06, "MEAN_MOTION_DDOT": 0}, "tle": {"line1": "1 41586U 16037A   25339.59265584 -.00000344  00000+0  00000+0 0  9997", "line2": "2 41586   1.7387  67.7225 0004355   2.4156 328.3509  1.00270507  4945"}}, "geometry": {"type": "Point", "coordinates": [117.96801869876089, 1.3527975375916594]}}, {"type": "Feature", "properties": {"norad_id": 43001, "name": "BEIDOU-3 M1 (C19)", "group": "beidou", "lat": -9.14546064320394, "lon": 63.363766641423794, "alt_km": 21512.215745144804, "timestamp": "2025-12-05T19:30:25.830647+00:00", "meta": {"OBJECT_NAME": "BEIDOU-3 M1 (C19)", "OBJECT_ID": "2017-069A", "EPOCH": "2025-12-03T03:27:53.485056", "MEAN_MOTION": 1.86230745, "ECCENTRICITY": 0.00088373, "INCLINATION": 56.5186, "RA_OF_ASC_NODE": 69.5514, "ARG_OF_PERICENTER": 303.7187, "MEAN_ANOMALY": 56.1997, "EPHEMERIS_TYPE": 0, "CLASSIFICATION_TYPE": "U", "NORAD_CAT_ID": 43001, "ELEMENT_SET_NO": 999, "REV_AT_EPOCH": 5495, "BSTAR": 0, "MEAN_MOTION_DOT": -4.9e-07, "MEAN_MOTION_DDOT": 0}, "tle": {"line1": "1 43001U 17069A   25337.14436904 -.00000049  00000+0  00000+0 0  9994", "line2": "2 43001  56.5186  69.5514 0008837 303.7187  56.1997  1.86230745 54952"}}, "geometry": {"type": "Point", "coordinates": [63.363766641423794, -9.14546064320394]}}, {"type": "Feature", "properties": {"norad_id": 43002, "name": "BEIDOU-3 M2 (C20)", "group": "beidou", "lat": 24.96841190759139, "lon": 87.42439943728182, "alt_km": 21516.000026977006, "timestamp": "2025-12-05T19:30:25.830658+00:00", "meta": {"OBJECT_NAME": "BEIDOU-3 M2 (C20)", "OBJECT_ID": "2017-069B", "EPOCH": "2025-12-04T16:38:46.347936", "MEAN_MOTION": 1.862306, "ECCENTRICITY": 0.00062566, "INCLINATION": 56.5195, "RA_OF_ASC_NODE": 69.536, "ARG_OF_PERICENTER": 331.7329, "MEAN_ANOMALY": 28.2399, "EPHEMERIS_TYPE": 0, "CLASSIFICATION_TYPE": "U", "NORAD_CAT_ID": 43002, "ELEMENT_SET_NO": 999, "REV_AT_EPOCH": 5497, "BSTAR": 0, "MEAN_MOTION_DOT": -4.9e-07, "MEAN_MOTION_DDOT": 0}, "tle": {"line1": "1 43002U 17069B   25338.69359199 -.00000049  00000+0  00000+0 0  9996", "line2": "2 43002  56.5195  69.5360 0006256 331.7329  28.2399  1.86230600 54972"}}, "geometry": {"type": "Point", "coordinates": [87.42439943728182, 24.96841190759139]}}, {"type": "Feature", "properties": {"norad_id": 43107, "name": "BEIDOU-3 M7 (C27)", "group": "beidou", "lat": -18.298799763468107, "lon": 142.67705190028926, "alt_km": 21535.42000716323, "timestamp": "2025-12-05T19:30:25.830669+00:00", "meta": {"OBJECT_NAME": "BEIDOU-3 M7 (C27)", "OBJECT_ID": "2018-003A", "EPOCH": "2025-12-04T23:22:06.674304", "MEAN_MOTION": 1.86232224, "ECCENTRICITY": 0.00026381, "INCLINATION": 54.5036, "RA_OF_ASC_NODE": 309.0851, "ARG_OF_PERICENTER": 70.1822, "MEAN_ANOMALY": 289.8293, "EPHEMERIS_TYPE": 0, "CLASSIFICATION_TYPE": "U", "NORAD_CAT_ID": 43107, "ELEMENT_SET_NO": 999, "REV_AT_EPOCH": 5373, "BSTAR": 0, "MEAN_MOTION_DOT": -7e-07, "MEAN_MOTION_DDOT": 0}, "tle": {"line1": "1 43107U 18003A   25338.97368836 -.00000070  00000+0  00000+0 0  9994", "line2": "2 43107  54.5036 309.0851 0002638  70.1822 289.8293  1.86232224 53734"}}, "geometry": {"type": "Point", "coordinates": [142.67705190028926, -18.298799763468107]}}, {"type": "Feature", "properties": {"norad_id": 43108, "name": "BEIDOU-3 M8 (C28)", "group": "beidou", "lat": -44.54884449219015, "lon": 173.6309025493292, "alt_km": 21522.215295690574, "timestamp": "2025-12-05T19:30:25.830695+00:00", "meta": {"OBJECT_NAME": "BEIDOU-3 M8 (C28)", "OBJECT_ID": "2018-003B", "EPOCH": "2025-12-03T20:16:15.436704", "MEAN_MOTION": 1.86230755, "ECCENTRICITY": 0.0004789, "INCLINATION": 54.4975, "RA_OF_ASC_NODE": 309.1071, "ARG_OF_PERICENTER": 274.2636, "MEAN_ANOMALY": 85.6663, "EPHEMERIS_TYPE": 0, "CLASSIFICATION_TYPE": "U", "NORAD_CAT_ID": 43108, "ELEMENT_SET_NO": 999, "REV_AT_EPOCH": 5372, "BSTAR": 0, "MEAN_MOTION_DOT": -6.8e-07, "MEAN_MOTION_DDOT": 0}, "tle": {"line1": "1 43108U 18003B   25337.84462311 -.00000068  00000+0  00000+0 0  9990", "line2": "2 43108  54.4975 309.1071 0004789 274.2636  85.6663  1.86230755 53729"}}, "geometry": {"type": "Point", "coordinates": [173.6309025493292, -44.54884449219015]}}]}